KUIPER-00218            
1 67780U 26030S   26068.64042744  .00022104  00000+0  64584-3 0  9990
2 67780  51.8829 219.4934 0006939  50.9637 309.1966 15.35202151  5084
KUIPER-00220            
1 67781U 26030T   26068.71280462  .00035785  00000+0  10498-2 0  9993
2 67781  51.8809 219.2195 0009050  53.9230 306.2592 15.34795258  5097
KUIPER-00222            
1 67782U 26030U   26068.67636257  .00055223  00000+0  17317-2 0  9992
2 67782  51.8817 219.7147 0012800  40.1845 320.0084 15.32445377  5087
KUIPER-00223            
1 67783U 26030V   26068.72136600  .00030225  00000+0  90645-3 0  9997
2 67783  51.8827 219.2782 0012824  59.0052 301.2192 15.34146210  5092
KUIPER-00225            
1 67784U 26030W   26068.69454315  .00025142  00000+0  71610-3 0  9993
2 67784  51.8808 219.1029 0004458  39.1442 320.9866 15.35937709  5099
KUIPER-00226            
1 67785U 26030X   26068.62629313  .00046834  00000+0  15530-2 0  9998
2 67785  51.8814 220.1252 0017713  64.2781 296.0030 15.30655594  5078
KUIPER-00259            
1 67786U 26030Y   26068.70784604  .00037736  00000+0  10952-2 0  9997
2 67786  51.8804 219.1883 0008588  48.4056 311.7664 15.35112170  5098
KUIPER-00260            
1 67787U 26030Z   26068.62023347  .00034182  00000+0  95058-3 0  9992
2 67787  51.8799 219.3544 0001391  50.4119 309.6990 15.36527197  4992
KUIPER-00262            
1 67788U 26030AA  26068.68113949  .00027576  00000+0  76511-3 0  9999
2 67788  51.8818 219.0179 0000354  64.0282 296.0741 15.36709745  5092
KUIPER-00266            
1 67789U 26030AB  26067.91293632  .00029701  00000+0  98220-3 0  9996
2 67789  51.8807 223.5904 0022313  72.5291 287.8129 15.30874235  4964
KUIPER-00268            
1 67790U 26030AC  26068.62668427  .00036094  00000+0  10186-2 0  9992
2 67790  51.8839 219.4073 0002948  35.5768 324.5415 15.36041233  5083
KUIPER-00270            
1 67791U 26030AD  26068.77956772  .00031543  00000+0  93017-3 0  9991
2 67791  51.8805 218.9166 0010680  56.4163 303.7841 15.34680420  5107
KUIPER-00274            
1 67792U 26030AE  26068.83334490  .00065999  00000+0  22302-2 0  9996
2 67792  51.8833 219.0909 0018260  70.8809  16.2226 15.29881196  4092
KUIPER-00275            
1 67793U 26030AF  26068.71162337  .00032535  00000+0  95700-3 0  9996
2 67793  51.8837 219.2226 0009337  52.8442 307.3395 15.34756533  5093
KUIPER-00276            
1 67794U 26030AG  26068.83334490  .00077912  00000+0  26027-2 0  9994
2 67794  51.8826 219.1270 0018890  67.2489   1.3989 15.30163879  4815
KUIPER-00279            
1 67795U 26030AH  26068.63787223  .00021889  00000+0  63535-3 0  9997
2 67795  51.8796 219.4677 0006492  47.8727 312.2810 15.35417463  5083
CREW DRAGON 12          
1 67796U 26031A   26068.70691881  .00007976  00000+0  15510-3 0  9992
2 67796  51.6323  72.2710 0008020 174.6781 185.4294 15.48547200556229
